STARLINK-36321          
1 68046U 26041G   26087.83525203  .00285441  00000+0  17987-2 0  9995
2 68046  53.1585 326.4078 0001206  36.5325 323.5778 15.75307249  4244
STARLINK-36181          
1 68047U 26041H   26087.83335647 -.00111972  00000+0 -73394-3 0  9991
2 68047  53.1590 326.2071 0001004 105.7982 346.5364 15.75302189  5331
STARLINK-36318          
1 68048U 26041J   26087.85827601  .00315684  00000+0  19854-2 0  9994
2 68048  53.1596 326.5614 0000905  74.2404 285.8716 15.75263512  4243
STARLINK-36885          
1 68049U 26041K   26087.66760610  .00471370  00000+0  28815-2 0  9992
2 68049  53.1607 327.5041 0000904 283.8681  76.2239 15.75472133  4216
STARLINK-36945          
1 68050U 26041L   26087.83335647 -.00117854  00000+0 -77372-3 0  9990
2 68050  53.1591 326.2632 0001108  75.2011 349.5270 15.75287769  5456
STARLINK-35911          
1 68051U 26041M   26087.83335647 -.00094148  00000+0 -61573-3 0  9997
2 68051  53.1592 326.2106 0001373 108.3169 342.1651 15.75279328  5410
STARLINK-35808          
1 68052U 26041N   26087.83558199  .00459623  00000+0  28241-2 0  9992
2 68052  53.1578 326.4084 0001323 156.5228 203.5853 15.75388916  4246
STARLINK-36919          
1 68053U 26041P   26087.83335647 -.00125934  00000+0 -82757-3 0  9994
2 68053  53.1589 326.1572 0000663  81.8410  34.3875 15.75296387  5455
STARLINK-36924          
1 68054U 26041Q   26087.85373646  .00509490  00000+0  30910-2 0  9992
2 68054  53.1594 326.5310 0000588 228.0480 132.0490 15.75537243  4248
STARLINK-35998          
1 68055U 26041R   26087.64037330  .00319593  00000+0  20023-2 0  9994
2 68055  53.1581 327.3224 0002099 105.6472 254.4780 15.75341623  4211
STARLINK-36845          
1 68056U 26041S   26087.82617013  .00406986  00000+0  25177-2 0  9995
2 68056  53.1599 326.3463 0001487 178.8549 181.2475 15.75382212  4242
STARLINK-36954          
1 68057U 26041T   26087.85341007  .00297190  00000+0  18759-2 0  9999
2 68057  53.1604 326.5271 0001018  46.5811 313.5294 15.75234199  4241
